[{"OBJECT_NAME":"COSMOS 2407","OBJECT_ID":"2004-028A","EPOCH":"2026-03-09T18:32:11.166144","MEAN_MOTION":13.76325057,"ECCENTRICITY":0.00396651,"INCLINATION":82.9633,"RA_OF_ASC_NODE":148.4649,"ARG_OF_PERICENTER":168.53,"MEAN_ANOMALY":311.3754,"EPHEMERIS_TYPE":0,"CLASSIFICATION_TYPE":"U","NORAD_CAT_ID":28380,"ELEMENT_SET_NO":999,"REV_AT_EPOCH":8620,"BSTAR":5.9261217e-5,"MEAN_MOTION_DOT":7.4e-7,"MEAN_MOTION_DDOT":0},{"OBJECT_NAME":"NNSS 20 (TRANSIT 20)","OBJECT_ID":"1973-081A","EPOCH":"2026-03-09T22:41:43.394496","MEAN_MOTION":13.71475437,"ECCENTRICITY":0.01547436,"INCLINATION":89.8515,"RA_OF_ASC_NODE":253.726,"ARG_OF_PERICENTER":176.0456,"MEAN_ANOMALY":184.1972,"EPHEMERIS_TYPE":0,"CLASSIFICATION_TYPE":"U","NORAD_CAT_ID":6909,"ELEMENT_SET_NO":999,"REV_AT_EPOCH":81556,"BSTAR":0.00023952502,"MEAN_MOTION_DOT":2.46e-6,"MEAN_MOTION_DDOT":0}]
